CCSDS_OMM_VERS,COMMENT,CREATION_DATE,ORIGINATOR,OBJECT_NAME,OBJECT_ID,CENTER_NAME,REF_FRAME,TIME_SYSTEM,MEAN_ELEMENT_THEORY,EPOCH,MEAN_MOTION,ECCENTRICITY,INCLINATION,RA_OF_ASC_NODE,ARG_OF_PERICENTER,MEAN_ANOMALY,EPHEMERIS_TYPE,CLASSIFICATION_TYPE,NORAD_CAT_ID,ELEMENT_SET_NO,REV_AT_EPOCH,BSTAR,MEAN_MOTION_DOT,MEAN_MOTION_DDOT,SEMIMAJOR_AXIS,PERIOD,APOAPSIS,PERIAPSIS,OBJECT_TYPE,RCS_SIZE,COUNTRY_CODE,LAUNCH_DATE,SITE,DECAY_DATE,FILE,GP_ID,TLE_LINE0,TLE_LINE1,TLE_LINE2,,,,,,,AVG_ALTITUDE,,AVG_VELOCITY
2,GENERATED VIA SPACE-TRACK.ORG API,2022-06-03T07:26:13,18 SPCS,SPACEBEE-129,2022-033Y,EARTH,TEME,UTC,SGP4,2022-06-03T05:02:00.872448,15.22329963,0.0009986,97.3818,235.8613,74.6349,285.599,0,U,52179,999,949,0.00030644,7.01E-05,0,6876.952,94.592,505.684,491.949,PAYLOAD,SMALL,US,4/1/2022,AFETR,,3478544,205227923,0 SPACEBEE-129,1 52179U 22033Y   22154.20973232  .00007006  00000-0  30644-3 0  9999,2 52179  97.3818 235.8613 0009986  74.6349 285.5990 15.22329963  9497,,,,,,,506.952,,7.613264583
2,GENERATED VIA SPACE-TRACK.ORG API,2022-06-03T07:36:12,18 SPCS,SPACEBEE-134,2022-033Z,EARTH,TEME,UTC,SGP4,2022-06-03T04:57:01.315008,15.22370048,0.001029,97.382,235.8704,75.602,284.6358,0,U,52180,999,949,0.00022312,5.09E-05,0,6876.831,94.589,505.772,491.62,PAYLOAD,SMALL,US,4/1/2022,AFETR,,3478565,205228886,0 SPACEBEE-134,1 52180U 22033Z   22154.20626522  .00005087  00000-0  22312-3 0  9998,2 52180  97.3820 235.8704 0010290  75.6020 284.6358 15.22370048  9498,,,,,,,506.831,,7.613331562
2,GENERATED VIA SPACE-TRACK.ORG API,2022-06-03T07:36:12,18 SPCS,SPACEBEE-131,2022-033AA,EARTH,TEME,UTC,SGP4,2022-06-03T04:58:27.187968,15.22416373,0.001008,97.3818,235.866,75.7208,284.5147,0,U,52181,999,949,0.00031108,7.13E-05,0,6876.692,94.586,505.488,491.625,PAYLOAD,SMALL,US,4/1/2022,AFETR,,3478568,205228677,0 SPACEBEE-131,1 52181U 22033AA  22154.20725912  .00007131  00000-0  31108-3 0  9997,2 52181  97.3818 235.8660 0010080  75.7208 284.5147 15.22416373  9490,,,,,,,506.692,,7.613408506
2,GENERATED VIA SPACE-TRACK.ORG API,2022-06-03T07:26:13,18 SPCS,SPACEBEE-128,2022-033AB,EARTH,TEME,UTC,SGP4,2022-06-03T05:01:31.244160,15.22340981,0.0010305,97.3831,235.8728,74.5545,285.6829,0,U,52182,999,949,0.00031324,7.17E-05,0,6876.919,94.591,505.87,491.697,PAYLOAD,SMALL,US,4/1/2022,AFETR,,3478544,205228420,0 SPACEBEE-128,1 52182U 22033AB  22154.20938940  .00007166  00000-0  31324-3 0  9993,2 52182  97.3831 235.8728 0010305  74.5545 285.6829 15.22340981  9492,,,,,,,506.919,,7.61328285
2,GENERATED VIA SPACE-TRACK.ORG API,2022-06-03T07:36:12,18 SPCS,SPACEBEE-133,2022-033AC,EARTH,TEME,UTC,SGP4,2022-06-03T04:57:23.592384,15.22439116,0.0010107,97.3821,235.8679,75.526,284.7097,0,U,52183,999,949,0.00031377,7.20E-05,0,6876.623,94.585,505.438,491.538,PAYLOAD,SMALL,US,4/1/2022,AFETR,,3478562,205228833,0 SPACEBEE-133,1 52183U 22033AC  22154.20652306  .00007199  00000-0  31377-3 0  9997,2 52183  97.3821 235.8679 0010107  75.5260 284.7097 15.22439116  9498,,,,,,,506.623,,7.613446702
2,GENERATED VIA SPACE-TRACK.ORG API,2022-06-03T02:31:39,18 SPCS,NUSAT-26 (M SOMERVILLE),2022-033AD,EARTH,TEME,UTC,SGP4,2022-06-02T20:02:38.739840,15.21307202,0.0011226,97.3858,235.4803,69.5779,290.6661,0,U,52184,999,945,0.0001727,3.80E-05,0,6880.034,94.655,509.622,494.175,PAYLOAD,MEDIUM,ARGN,4/1/2022,AFETR,,3477983,205215219,0 NUSAT-26 (M SOMERVILLE),1 52184U 22033AD  22153.83517060  .00003801  00000-0  17270-3 0  9995,2 52184  97.3858 235.4803 0011226  69.5779 290.6661 15.21307202  9453,,,,,,,510.034,,7.611559162
2,GENERATED VIA SPACE-TRACK.ORG API,2022-06-03T07:36:12,18 SPCS,SPACEBEE-132,2022-033AE,EARTH,TEME,UTC,SGP4,2022-06-03T04:51:59.181120,15.22570239,0.0009998,97.3826,235.8781,86.4705,273.7675,0,U,52185,999,949,0.00033144,7.64E-05,0,6876.228,94.577,504.968,491.218,PAYLOAD,SMALL,US,4/1/2022,AFETR,,3478564,205228628,0 SPACEBEE-132,1 52185U 22033AE  22154.20276830  .00007638  00000-0  33144-3 0  9995,2 52185  97.3826 235.8781 0009998  86.4705 273.7675 15.22570239  9492,,,,,,,506.228,,7.613665374
2,GENERATED VIA SPACE-TRACK.ORG API,2022-06-03T07:36:12,18 SPCS,SPACEBEE-137,2022-033AF,EARTH,TEME,UTC,SGP4,2022-06-03T04:55:36.893568,15.22425358,0.0010518,97.3825,235.8733,74.3425,285.8971,0,U,52186,999,949,0.00027932,6.40E-05,0,6876.664,94.586,505.762,491.297,PAYLOAD,SMALL,US,4/1/2022,AFETR,,3478568,205228933,0 SPACEBEE-137,1 52186U 22033AF  22154.20528812  .00006398  00000-0  27932-3 0  9996,2 52186  97.3825 235.8733 0010518  74.3425 285.8971 15.22425358  9498,,,,,,,506.664,,7.613424006
2,GENERATED VIA SPACE-TRACK.ORG API,2022-06-03T07:26:13,18 SPCS,SPACEBEE-135,2022-033AG,EARTH,TEME,UTC,SGP4,2022-06-03T04:51:12.653856,15.22588096,0.0009551,97.3831,235.8832,71.4962,288.7312,0,U,52187,999,949,0.00032702,7.54E-05,0,6876.174,94.576,504.607,491.472,PAYLOAD,MEDIUM,US,4/1/2022,AFETR,,3478544,205227924,0 SPACEBEE-135,1 52187U 22033AG  22154.20222979  .00007538  00000-0  32702-3 0  9990,2 52187  97.3831 235.8832 0009551  71.4962 288.7312 15.22588096  9495,,,,,,,506.174,,7.61369527
2,GENERATED VIA SPACE-TRACK.ORG API,2022-06-03T07:36:12,18 SPCS,PLANTSAT,2022-033AH,EARTH,TEME,UTC,SGP4,2022-06-03T04:09:12.870432,15.23051279,0.0007374,97.3858,235.9428,87.8186,272.3895,0,U,52188,999,946,0.00020389,4.73E-05,0,6874.78,94.547,501.715,491.576,PAYLOAD,SMALL,CHLE,4/1/2022,AFETR,,3478571,205228595,0 PLANTSAT,1 52188U 22033AH  22154.17306563  .00004734  00000-0  20389-3 0  9992,2 52188  97.3858 235.9428 0007374  87.8186 272.3895 15.23051279  9468,,,,,,,504.78,,7.614467145
2,GENERATED VIA SPACE-TRACK.ORG API,2022-06-03T07:36:12,18 SPCS,KSF2-C,2022-033AJ,EARTH,TEME,UTC,SGP4,2022-06-03T02:16:04.753344,15.22151767,0.0011125,97.3791,235.7309,63.8175,20.616,0,U,52189,999,949,0.00039442,9.00E-05,0,6877.488,94.603,507.005,491.702,PAYLOAD,MEDIUM,LUXE,4/1/2022,AFETR,,3478571,205228600,0 KSF2-C,1 52189U 22033AJ  22154.09449946  .00008995  00000-0  39442-3 0  9990,2 52189  97.3791 235.7309 0011125  63.8175  20.6160 15.22151767  9496,,,,,,,507.488,,7.612967906
2,GENERATED VIA SPACE-TRACK.ORG API,2022-06-03T07:16:12,18 SPCS,KSF2-D,2022-033AK,EARTH,TEME,UTC,SGP4,2022-06-03T02:11:06.833184,15.22162938,0.0011129,97.3796,235.7299,63.4474,2.8631,0,U,52190,999,949,0.0004081,9.31E-05,0,6877.455,94.602,506.974,491.666,PAYLOAD,MEDIUM,LUXE,4/1/2022,AFETR,,3478478,205226643,0 KSF2-D,1 52190U 22033AK  22154.09105131  .00009313  00000-0  40810-3 0  9993,2 52190  97.3796 235.7299 0011129  63.4474   2.8631 15.22162938  9490,,,,,,,507.455,,7.61298617
2,GENERATED VIA SPACE-TRACK.ORG API,2022-06-03T02:31:39,18 SPCS,SUCHAI-3,2022-033AL,EARTH,TEME,UTC,SGP4,2022-06-02T15:36:33.591456,15.21042846,0.0011893,97.3961,235.3346,48.6407,311.585,0,U,52191,999,942,0.00022409,4.92E-05,0,6880.831,94.672,510.879,494.512,PAYLOAD,SMALL,CHLE,4/1/2022,AFETR,,3477983,205214913,0 SUCHAI-3,1 52191U 22033AL  22153.65038879  .00004915  00000-0  22409-3 0  9996,2 52191  97.3961 235.3346 0011893  48.6407 311.5850 15.21042846  9423,,,,,,,510.831,,7.611118329
2,GENERATED VIA SPACE-TRACK.ORG API,2022-06-03T02:31:39,18 SPCS,SUCHAI-2,2022-033AM,EARTH,TEME,UTC,SGP4,2022-06-02T16:08:19.641120,15.2232725,0.0011503,97.3763,235.3353,77.8213,282.4311,0,U,52192,999,943,0.00017933,4.07E-05,0,6876.96,94.592,506.735,490.914,PAYLOAD,SMALL,CHLE,4/1/2022,AFETR,,3477983,205215220,0 SUCHAI-2,1 52192U 22033AM  22153.67244955  .00004071  00000-0  17933-3 0  9992,2 52192  97.3763 235.3353 0011503  77.8213 282.4311 15.22327250  9434,,,,,,,506.96,,7.613260155
2,GENERATED VIA SPACE-TRACK.ORG API,2022-06-03T07:36:12,18 SPCS,OBJECT A,2022-034A,EARTH,TEME,UTC,SGP4,2022-06-03T04:22:49.246752,15.73537801,0.0013688,52.9949,44.1787,183.2633,176.8276,0,U,52195,999,959,0.0027896,0.00418833,0,6726.932,91.514,358.005,339.589,UNKNOWN,MEDIUM,US,4/2/2022,RLLC,,3478565,205228630,0 OBJECT A,1 52195U 22034A   22154.18251443  .00418833  00000-0  27896-2 0  9996,2 52195  52.9949  44.1787 0013688 183.2633 176.8276 15.73537801  9595,,,,,,,356.932,,7.697689707
2,GENERATED VIA SPACE-TRACK.ORG API,2022-06-02T17:55:29,18 SPCS,GLOBAL-18,2022-034B,EARTH,TEME,UTC,SGP4,2022-06-02T10:22:30.452160,15.44954536,0.0009516,53.0069,52.428,137.4694,222.6897,0,U,52196,999,941,0.00028352,0.00013174,0,6809.649,93.207,437.994,425.034,PAYLOAD,MEDIUM,US,4/2/2022,RLLC,,3477482,205179889,0 GLOBAL-18,1 52196U 22034B   22153.43229690  .00013174  00000-0  28352-3 0  9991,2 52196  53.0069  52.4280 0009516 137.4694 222.6897 15.44954536  9410,,,,,,,439.649,,7.650794836
2,GENERATED VIA SPACE-TRACK.ORG API,2022-06-03T07:26:13,18 SPCS,GLOBAL-20,2022-034C,EARTH,TEME,UTC,SGP4,2022-06-03T02:49:27.011136,15.45190974,0.0009048,53.0066,48.8589,138.3689,221.747,0,U,52197,999,952,0.0001,4.40E-05,0,6808.954,93.192,436.98,424.658,PAYLOAD,MEDIUM,US,4/2/2022,RLLC,,3478549,205228442,0 GLOBAL-20,1 52197U 22034C   22154.11767374  .00004398  00000-0  10000-3 0  9993,2 52197  53.0066  48.8589 0009048 138.3689 221.7470 15.45190974  9521,,,,,,,438.954,,7.65118529
2,GENERATED VIA SPACE-TRACK.ORG API,2022-06-03T06:26:12,18 SPCS,GAOFEN 3 03,2022-035A,EARTH,TEME,UTC,SGP4,2022-06-03T01:03:09.071136,14.42213858,0.0001238,98.414,162.205,72.8957,287.237,0,U,52200,999,823,1.88E-05,1.80E-07,0,7129.33,99.846,752.078,750.313,PAYLOAD,LARGE,PRC,4/6/2022,JSC,,3478034,205215500,0 GAOFEN 3 03,1 52200U 22035A   22154.04385499  .00000018  00000-0  18764-4 0  9996,2 52200  98.4140 162.2050 0001238  72.8957 287.2370 14.42213858  8235,,,,,,,759.33,,7.477295786
2,GENERATED VIA SPACE-TRACK.ORG API,2022-06-03T06:26:12,18 SPCS,COSMOS 2554,2022-036A,EARTH,TEME,UTC,SGP4,2022-06-03T02:42:21.468672,13.96675626,0.0006699,67.1502,213.849,261.9931,98.0409,0,U,52202,999,796,-4.28E-05,-1.35E-06,0,7283.467,103.102,910.211,900.452,PAYLOAD,LARGE,CIS,4/7/2022,PKMTR,,3478039,205215588,0 COSMOS 2554,1 52202U 22036A   22154.11274848 -.00000135  00000-0 -42805-4 0  9997,2 52202  67.1502 213.8490 0006699 261.9931  98.0409 13.96675626  7965,,,,,,,913.467,,7.397753245
